{
    "links": {
        "self": "http://www.neowsapp.com/rest/v1/neo/3648868?api_key=iIulBulltgU6a56xZRHN4H3l9WmuAYTsLGpBGhQ2"
    },
    "id": "3648868",
    "neo_reference_id": "3648868",
    "name": "(2013 TZ5)",
    "designation": "2013 TZ5",
    "nasa_jpl_url": "http://ssd.jpl.nasa.gov/sbdb.cgi?sstr=3648868",
    "absolute_magnitude_h": 23.4,
    "estimated_diameter": {
        "kilometers": {
            "estimated_diameter_min": 0.0555334912,
            "estimated_diameter_max": 0.1241766613
        },
        "meters": {
            "estimated_diameter_min": 55.5334911581,
            "estimated_diameter_max": 124.1766612574
        },
        "miles": {
            "estimated_diameter_min": 0.0345069009,
            "estimated_diameter_max": 0.0771597762
        },
        "feet": {
            "estimated_diameter_min": 182.1964991311,
            "estimated_diameter_max": 407.4037573197
        }
    },
    "is_potentially_hazardous_asteroid": false,
    "close_approach_data": [
        {
            "close_approach_date": "2013-09-30",
            "close_approach_date_full": "2013-Sep-30 06:10",
            "epoch_date_close_approach": 1380521400000,
            "relative_velocity": {
                "kilometers_per_second": "7.2344792082",
                "kilometers_per_hour": "26044.1251496801",
                "miles_per_hour": "16182.8065409221"
            },
            "miss_distance": {
                "astronomical": "0.1527505621",
                "lunar": "59.4199686569",
                "kilometers": "22851158.731462727",
                "miles": "14199051.6169585526"
            },
            "orbiting_body": "Earth"
        }
    ],
    "orbital_data": {
        "orbit_id": "9",
        "orbit_determination_date": "2017-04-06 08:44:20",
        "first_observation_date": "2013-10-04",
        "last_observation_date": "2013-10-24",
        "data_arc_in_days": 20,
        "observations_used": 32,
        "orbit_uncertainty": "8",
        "minimum_orbit_intersection": ".149501",
        "jupiter_tisserand_invariant": "3.300",
        "epoch_osculation": "2456577.5",
        "eccentricity": ".5265550119390816",
        "semi_major_axis": "2.406744988955526",
        "inclination": "10.17454783011626",
        "ascending_node_longitude": "203.6316990212037",
        "orbital_period": "1363.777563418435",
        "perihelion_distance": "1.139461352561724",
        "perihelion_argument": "158.1477003815662",
        "aphelion_distance": "3.674028625349327",
        "perihelion_time": "2456558.914303666549",
        "mean_anomaly": "4.906115820875598",
        "mean_motion": ".263972666552474",
        "equinox": "J2000",
        "orbit_class": {
            "orbit_class_type": "AMO",
            "orbit_class_description": "Near-Earth asteroid orbits similar to that of 1221 Amor",
            "orbit_class_range": "1.017 AU < q (perihelion) < 1.3 AU"
        }
    },
    "is_sentry_object": false
}